NORAD_CAT_ID,OBJECT_NAME,OBJECT_TYPE,EPOCH,MEAN_MOTION,ECCENTRICITY,INCLINATION,RA_OF_ASC_NODE,ARG_OF_PERICENTER,MEAN_ANOMALY,BSTAR,MEAN_MOTION_DOT,MEAN_MOTION_DDOT,TLE_LINE0,TLE_LINE1,TLE_LINE2,SEMIMAJOR_AXIS,PERIOD,APOGEE,PERIGEE,DECAYED
55300.0,STARLINK-5308,PAYLOAD,2023-10-03 14:01:11,14.98332166,0.0002797,69.9985,103.5224,267.9681,92.1158,-8.643e-05,-1.124e-05,0.0,0 STARLINK-5308,1 55300U 23010AH  23276.58416120 -.00001124  00000-0 -86430-4 0  9991,2 55300  69.9985 103.5224 0002797 267.9681  92.1158 14.98332166 40241,6950.186,96.107,573.995,570.107,0.0
55300.0,STARLINK-5308,PAYLOAD,2023-10-03 20:25:43,14.98331121,0.0002824,69.9984,102.849,267.9631,92.1205,-9.5976e-05,-1.238e-05,0.0,0 STARLINK-5308,1 55300U 23010AH  23276.85120176 -.00001238  00000-0 -95976-4 0  9995,2 55300  69.9984 102.8490 0002824 267.9631  92.1205 14.98331121 40280,6950.189,96.107,574.017,570.092,0.0
55300.0,STARLINK-5308,PAYLOAD,2023-10-04 14:03:12,14.98330485,0.0002951,69.9981,100.9967,268.3831,91.699,7.1532e-05,7.61e-06,0.0,0 STARLINK-5308,1 55300U 23010AH  23277.58555637  .00000761  00000-0  71532-4 0  9990,2 55300  69.9981 100.9967 0002951 268.3831  91.6990 14.98330485 40392,6950.191,96.107,574.107,570.005,0.0
55300.0,STARLINK-5308,PAYLOAD,2023-10-04 18:51:36,14.98332931,0.0002982,69.9982,100.4916,268.5538,91.528,6.2057e-05,6.48e-06,0.0,0 STARLINK-5308,1 55300U 23010AH  23277.78583493  .00000648  00000-0  62057-4 0  9999,2 55300  69.9982 100.4916 0002982 268.5538  91.5280 14.98332931 40111,6950.184,96.107,574.121,569.976,0.0
55300.0,STARLINK-5308,PAYLOAD,2023-10-04 22:03:52,14.98333819,0.000297,69.9983,100.155,268.5796,91.5023,7.0533e-05,7.49e-06,0.0,0 STARLINK-5308,1 55300U 23010AH  23277.91935388  .00000749  00000-0  70533-4 0  9998,2 55300  69.9983 100.1550 0002970 268.5796  91.5023 14.98333819 40443,6950.181,96.107,574.11,569.982,0.0
55300.0,STARLINK-5308,PAYLOAD,2023-10-05 14:05:13,14.98327069,0.0002937,69.9984,98.4713,268.7241,91.3581,7.6989e-06,-1e-08,0.0,0 STARLINK-5308,1 55300U 23010AH  23278.58695943 -.00000001  00000-0  76989-5 0  9996,2 55300  69.9984  98.4713 0002937 268.7241  91.3581 14.98327069 40542,6950.202,96.107,574.108,570.026,0.0
55300.0,STARLINK-5308,PAYLOAD,2023-10-05 20:29:45,14.98329347,0.0002997,69.9983,97.7986,269.6601,90.4215,1.4663e-05,8.2e-07,0.0,0 STARLINK-5308,1 55300U 23010AH  23278.85399799  .00000082  00000-0  14663-4 0  9994,2 55300  69.9983  97.7986 0002997 269.6601  90.4215 14.98329347 40276,6950.195,96.107,574.143,569.977,0.0
55300.0,STARLINK-5308,PAYLOAD,2023-10-06 14:07:14,14.98332124,0.0003005,69.9986,95.9469,270.0653,90.0162,-4.7791e-05,-6.63e-06,0.0,0 STARLINK-5308,1 55300U 23010AH  23279.58835764 -.00000663  00000-0 -47791-4 0  9997,2 55300  69.9986  95.9469 0003005 270.0653  90.0162 14.98332124 40699,6950.186,96.107,574.14,569.963,0.0
55300.0,STARLINK-5308,PAYLOAD,2023-10-06 20:31:46,14.98332436,0.0002963,69.9987,95.2736,270.1499,89.9321,-3.738e-05,-5.39e-06,0.0,0 STARLINK-5308,1 55300U 23010AH  23279.85539675 -.00000539  00000-0 -37380-4 0  9994,2 55300  69.9987  95.2736 0002963 270.1499  89.9321 14.98332436 40422,6950.185,96.107,574.11,569.991,0.0
55300.0,STARLINK-5308,PAYLOAD,2023-10-06 22:07:54,14.98332871,0.0002985,69.9987,95.1052,270.0469,90.0348,-3.0844e-05,-4.61e-06,0.0,0 STARLINK-5308,1 55300U 23010AH  23279.92215616 -.00000461  00000-0 -30844-4 0  9990,2 55300  69.9987  95.1052 0002985 270.0469  90.0348 14.98332871 40742,6950.184,96.107,574.124,569.974,0.0
55300.0,STARLINK-5308,PAYLOAD,2023-10-07 14:09:14,14.98330316,0.0002958,69.9987,93.4218,271.0908,88.9912,2.9986e-05,2.65e-06,0.0,0 STARLINK-5308,1 55300U 23010AH  23280.58975506  .00000265  00000-0  29986-4 0  9990,2 55300  69.9987  93.4218 0002958 271.0908  88.9912 14.98330316 40842,6950.192,96.107,574.113,570.001,0.0
55300.0,STARLINK-5308,PAYLOAD,2023-10-07 20:33:46,14.98358652,0.0002933,69.9989,92.7486,268.8627,91.2196,-0.00042911,-5.213e-05,0.0,0 STARLINK-5308,1 55300U 23010AH  23280.85678812 -.00005213  00000-0 -42911-3 0  9992,2 55300  69.9989  92.7486 0002933 268.8627  91.2196 14.98358652 40572,6950.104,96.105,574.008,569.931,0.0
55300.0,STARLINK-5308,PAYLOAD,2023-10-08 10:58:59,14.98330781,0.0002913,69.9992,91.2338,269.713,90.3695,8.3293e-06,6e-08,0.0,0 STARLINK-5308,1 55300U 23010AH  23281.45763441  .00000006  00000-0  83293-5 0  9995,2 55300  69.9992  91.2338 0002913 269.7130  90.3695 14.98330781 40660,6950.19,96.107,574.08,570.031,0.0
55300.0,STARLINK-5308,PAYLOAD,2023-10-08 14:11:15,14.98330543,0.0002926,69.9992,90.8972,269.2959,90.7865,4.7961e-06,-3.6e-07,0.0,0 STARLINK-5308,1 55300U 23010AH  23281.59115443 -.00000036  00000-0  47961-5 0  9999,2 55300  69.9992  90.8972 0002926 269.2959  90.7865 14.98330543 40992,6950.191,96.107,574.09,570.023,0.0
55300.0,STARLINK-5308,PAYLOAD,2023-10-08 20:35:47,14.98331304,0.0002928,69.9991,90.2238,269.3666,90.7157,1.1859e-05,4.9e-07,0.0,0 STARLINK-5308,1 55300U 23010AH  23281.85819346  .00000049  00000-0  11859-4 0  9990,2 55300  69.9991  90.2238 0002928 269.3666  90.7157 14.98331304 41034,6950.189,96.107,574.089,570.019,0.0
55300.0,STARLINK-5308,PAYLOAD,2023-10-09 14:13:16,14.98329116,0.0002939,69.9992,88.372,269.4571,90.6252,-3.6481e-05,-5.28e-06,0.0,0 STARLINK-5308,1 55300U 23010AH  23282.59255597 -.00000528  00000-0 -36481-4 0  9996,2 55300  69.9992  88.3720 0002939 269.4571  90.6252 14.98329116 41142,6950.196,96.107,574.103,570.018,0.0
55300.0,STARLINK-5308,PAYLOAD,2023-10-09 19:01:41,14.98328709,0.0002952,69.9993,87.8671,269.0737,91.0083,-3.9176e-05,-5.6e-06,0.0,0 STARLINK-5308,1 55300U 23010AH  23282.79283627 -.00000560  00000-0 -39176-4 0  9993,2 55300  69.9993  87.8671 0002952 269.0737  91.0083 14.98328709 40869,6950.197,96.107,574.114,570.01,0.0
55300.0,STARLINK-5308,PAYLOAD,2023-10-09 20:37:49,14.9832794,0.000298,69.9992,87.6987,269.2163,90.8655,-4.794e-05,-6.65e-06,0.0,0 STARLINK-5308,1 55300U 23010AH  23282.85959700 -.00000665  00000-0 -47940-4 0  9996,2 55300  69.9992  87.6987 0002980 269.2163  90.8655 14.98327940 41186,6950.199,96.107,574.135,569.993,0.0
55300.0,STARLINK-5308,PAYLOAD,2023-10-10 14:15:17,14.98331882,0.000305,69.9989,85.8467,269.1436,90.9374,4.4278e-05,4.35e-06,0.0,0 STARLINK-5308,1 55300U 23010AH  23283.59395111  .00000435  00000-0  44278-4 0  9992,2 55300  69.9989  85.8467 0003050 269.1436  90.9374 14.98331882 41297,6950.187,96.107,574.172,569.932,0.0
55300.0,STARLINK-5308,PAYLOAD,2023-10-10 19:03:41,14.9833344,0.0003088,69.9991,85.3418,269.8213,90.2592,2.2806e-05,1.79e-06,0.0,0 STARLINK-5308,1 55300U 23010AH  23283.79423039  .00000179  00000-0  22806-4 0  9993,2 55300  69.9991  85.3418 0003088 269.8213  90.2592 14.98333440 41019,6950.182,96.107,574.193,569.901,0.0
55300.0,STARLINK-5308,PAYLOAD,2023-10-10 20:39:49,14.98334349,0.0003082,69.9992,85.1735,269.8645,90.2161,3.3002e-05,3.01e-06,0.0,0 STARLINK-5308,1 55300U 23010AH  23283.86098938  .00000301  00000-0  33002-4 0  9994,2 55300  69.9992  85.1735 0003082 269.8645  90.2161 14.98334349 41339,6950.179,96.107,574.186,569.902,0.0
55300.0,STARLINK-5308,PAYLOAD,2023-10-11 12:41:10,14.98325366,0.0003107,69.9993,83.4904,270.0202,90.0601,-8.4044e-06,-1.93e-06,0.0,0 STARLINK-5308,1 55300U 23010AH  23284.52859614 -.00000193  00000-0 -84044-5 0  9998,2 55300  69.9993  83.4904 0003107 270.0202  90.0601 14.98325366 41123,6950.207,96.107,574.232,569.913,0.0
55300.0,STARLINK-5308,PAYLOAD,2023-10-11 14:17:18,14.98325539,0.0003108,69.9993,83.322,270.0051,90.0752,-6.8104e-06,-1.74e-06,0.0,0 STARLINK-5308,1 55300U 23010AH  23284.59535612 -.00000174  00000-0 -68104-5 0  9992,2 55300  69.9993  83.3220 0003108 270.0051  90.0752 14.98325539 41440,6950.207,96.107,574.232,569.912,0.0
55300.0,STARLINK-5308,PAYLOAD,2023-10-12 12:43:11,14.98334923,0.0003073,69.9999,80.9652,269.9628,90.1179,6.0514e-06,-2.1e-07,0.0,0 STARLINK-5308,1 55300U 23010AH  23285.52998938 -.00000021  00000-0  60514-5 0  9997,2 55300  69.9999  80.9652 0003073 269.9628  90.1179 14.98334923 41582,6950.178,96.107,574.178,569.907,0.0
55300.0,STARLINK-5308,PAYLOAD,2023-10-12 19:07:43,14.98337884,0.000308,69.9999,80.2921,270.3643,89.7163,3.5591e-05,3.32e-06,0.0,0 STARLINK-5308,1 55300U 23010AH  23285.79702566  .00000332  00000-0  35591-4 0  9996,2 55300  69.9999  80.2921 0003080 270.3643  89.7163 14.98337884 41312,6950.169,96.106,574.174,569.893,0.0
55300.0,STARLINK-5308,PAYLOAD,2023-10-12 20:43:49,14.98394758,0.0002586,70.0001,80.1238,261.705,98.3816,-0.0009318,-0.00011212,0.0,0 STARLINK-5308,1 55300U 23010AH  23285.86377140 -.00011212  00000-0 -93180-3 0  9998,2 55300  70.0001  80.1238 0002586 261.7050  98.3816 14.98394758 41634,6949.993,96.103,573.655,570.06,0.0
55300.0,STARLINK-5308,PAYLOAD,2023-10-13 12:45:12,14.98325403,0.0002814,70.0003,78.4407,272.2853,87.7984,5.1729e-05,5.24e-06,0.0,0 STARLINK-5308,1 55300U 23010AH  23286.53139292  .00000524  00000-0  51729-4 0  9993,2 55300  70.0003  78.4407 0002814 272.2853  87.7984 14.98325403 41422,6950.207,96.107,574.028,570.116,0.0
55300.0,STARLINK-5308,PAYLOAD,2023-10-13 14:21:20,14.98327138,0.0003035,70.0007,78.2725,270.7839,89.2972,1.7748e-05,1.19e-06,0.0,0 STARLINK-5308,1 55300U 23010AH  23286.59815197  .00000119  00000-0  17748-4 0  9997,2 55300  70.0007  78.2725 0003035 270.7839  89.2972 14.98327138 41746,6950.202,96.107,574.176,569.957,0.0
55300.0,STARLINK-5308,PAYLOAD,2023-10-13 20:45:52,14.98329587,0.0002759,70.0008,77.5992,266.4873,93.5971,4.6968e-05,4.67e-06,0.0,0 STARLINK-5308,1 55300U 23010AH  23286.86518984  .00000467  00000-0  46968-4 0  9993,2 55300  70.0008  77.5992 0002759 266.4873  93.5971 14.98329587 41788,6950.194,96.107,573.977,570.142,0.0
55300.0,STARLINK-5308,PAYLOAD,2023-10-14 11:11:04,14.98332148,0.0002833,70.0004,76.0843,267.5794,92.5041,-2.2345e-05,-3.6e-06,0.0,0 STARLINK-5308,1 55300U 23010AH  23287.46602875 -.00000360  00000-0 -22345-4 0  9990,2 55300  70.0004  76.0843 0002833 267.5794  92.5041 14.98332148 41560,6950.186,96.107,574.02,570.082,0.0
